#dV2023  1  8 22  0  0.00000000    1682       CTS   FIT  GFZ
## 2244  79200.00000000    30.00000000 59952 0.9166666666667
+    1   L64  0  0  0  0  0  0  0  0  0  0  0  0  0  0  0  0
+          0  0  0  0  0  0  0  0  0  0  0  0  0  0  0  0  0
+          0  0  0  0  0  0  0  0  0  0  0  0  0  0  0  0  0
+          0  0  0  0  0  0  0  0  0  0  0  0  0  0  0  0  0
+          0  0  0  0  0  0  0  0  0  0  0  0  0  0  0  0  0
++         0  0  0  0  0  0  0  0  0  0  0  0  0  0  0  0  0
++         0  0  0  0  0  0  0  0  0  0  0  0  0  0  0  0  0
++         0  0  0  0  0  0  0  0  0  0  0  0  0  0  0  0  0
++         0  0  0  0  0  0  0  0  0  0  0  0  0  0  0  0  0
++         0  0  0  0  0  0  0  0  0  0  0  0  0  0  0  0  0
%c L  cc GPS ccc cccc cccc cccc cccc ccccc ccccc ccccc ccccc
%c cc cc ccc ccc cccc cccc cccc cccc ccccc ccccc ccccc ccccc
%f  0.0000000  0.000000000  0.00000000000  0.000000000000000
%f  0.0000000  0.000000000  0.00000000000  0.000000000000000
%i    0    0    0    0      0      0      0      0         0
%i    0    0    0    0      0      0      0      0         0
/* CCCCCCCCCCCCCCCCCCCCCCCCCCCCCCCCCCCCCCCCCCCCCCCCCCCCCCCCCCCCCCCCCCCCCCCCCCCCC
/* C                             GFZ RSO-ORBIT                                 C
/* C DOI: https://doi.org/10.5880/GFZ_ORBIT/RSO/L64_G_v02                      C
/* C                                                                           C
/* C DORIS        RMS: not applicable                                          C
/* C GNSS-E Code  RMS: not applicable                                          C
/* C GNSS-E Phase RMS: not applicable                                          C
/* C GNSS-G Code  RMS:  51.991 [cm]   Obs.acc.:     14268 Obs.eli.:      1147  C
/* C GNSS-G Phase RMS:   4.457 [mm]   Obs.acc.:     14268 Obs.eli.:      1147  C
/* C SLR          RMS:   3.980 [cm]   Obs.acc.:        76 Obs.eli.:         0  C
/* C                                                                           C
/* CCCCCCCCCCCCCCCCCCCCCCCCCCCCCCCCCCCCCCCCCCCCCCCCCCCCCCCCCCCCCCCCCCCCCCCCCCCCC
*  2023  1  9  0  7 30.00000000
PL64   -793.067262  -4210.133163  -5369.560100  24855.022544
VL64 -11961.897021 -58296.843322  47466.366538 999999.999999
*  2023  1  9  0  8  0.00000000
PL64   -828.889704  -4382.600279  -5224.216146  24855.481709
VL64 -11916.346893 -56670.680387  49420.736203 999999.999999
*  2023  1  9  0  8 30.00000000
PL64   -864.544929  -4550.094856  -5073.089963  24855.941180
VL64 -11850.383424 -54982.130107  51320.827635 999999.999999
*  2023  1  9  0  9  0.00000000
PL64   -899.971388  -4712.432588  -4916.347587  24856.400778
VL64 -11763.804207 -53233.109777  53164.514504 999999.999999
*  2023  1  9  0  9 30.00000000
PL64   -935.106967  -4869.435029  -4754.161350  24856.860063
VL64 -11656.438517 -51425.606838  54949.729619 999999.999999
*  2023  1  9  0 10  0.00000000
PL64   -969.889093  -5020.929800  -4586.709688  24857.319261
VL64 -11528.147873 -49561.677061  56674.468056 999999.999999
*  2023  1  9  0 10 30.00000000
PL64  -1004.254822  -5166.750784  -4414.176960  24857.778875
VL64 -11378.826352 -47643.441682  58336.790050 999999.999999
*  2023  1  9  0 11  0.00000000
PL64  -1038.140946  -5306.738326  -4236.753240  24858.238195
VL64 -11208.400987 -45673.084743  59934.822846 999999.999999
*  2023  1  9  0 11 30.00000000
PL64  -1071.484084  -5440.739414  -4054.634118  24858.697329
VL64 -11016.832297 -43652.851077  61466.762725 999999.999999
*  2023  1  9  0 12  0.00000000
PL64  -1104.220789  -5568.607857  -3868.020491  24859.156395
VL64 -10804.114607 -41585.044133  62930.877402 999999.999999
*  2023  1  9  0 12 30.00000000
PL64  -1136.287650  -5690.204463  -3677.118340  24859.615564
VL64 -10570.276189 -39472.023447  64325.508573 999999.999999
*  2023  1  9  0 13  0.00000000
PL64  -1167.621387  -5805.397195  -3482.138508  24860.074867
VL64 -10315.379462 -37316.201486  65649.074159 999999.999999
*  2023  1  9  0 13 30.00000000
PL64  -1198.158964  -5914.061332  -3283.296467  24860.534025
VL64 -10039.521364 -35120.040698  66900.069729 999999.999999
*  2023  1  9  0 14  0.00000000
PL64  -1227.837685  -6016.079609  -3080.812087  24860.993473
VL64  -9742.833692 -32886.051410  68077.070050 999999.999999
*  2023  1  9  0 14 30.00000000
PL64  -1256.595302  -6111.342366  -2874.909389  24861.452585
VL64  -9425.483315 -30616.789840  69178.731462 999999.999999
*  2023  1  9  0 15  0.00000000
PL64  -1284.370123  -6199.747674  -2665.816299  24861.911369
VL64  -9087.672215 -28314.855124  70203.794882 999999.999999
*  2023  1  9  0 15 30.00000000
PL64  -1311.101110  -6281.201461  -2453.764393  24862.370591
VL64  -8729.637157 -25982.885203  71151.088061 999999.999999
*  2023  1  9  0 16  0.00000000
PL64  -1336.727992  -6355.617622  -2238.988629  24862.829691
VL64  -8351.649269 -23623.553085  72019.526623 999999.999999
*  2023  1  9  0 16 30.00000000
PL64  -1361.191357  -6422.918121  -2021.727086  24863.289151
VL64  -7954.013847 -21239.563849  72808.115100 999999.999999
*  2023  1  9  0 17  0.00000000
PL64  -1384.432765  -6483.033081  -1802.220696  24863.748732
VL64  -7537.070345 -18833.651736  73515.948293 999999.999999
*  2023  1  9  0 17 30.00000000
PL64  -1406.394844  -6535.900868  -1580.712968  24864.208249
VL64  -7101.192349 -16408.576946  74142.213048 999999.999999
*  2023  1  9  0 18  0.00000000
PL64  -1427.021391  -6581.468162  -1357.449709  24864.667364
VL64  -6646.787162 -13967.121710  74686.189877 999999.999999
*  2023  1  9  0 18 30.00000000
PL64  -1446.257479  -6619.690018  -1132.678745  24865.125858
VL64  -6174.295169 -11512.086277  75147.253742 999999.999999
*  2023  1  9  0 19  0.00000000
PL64  -1464.049547  -6650.529914   -906.649633  24865.584352
VL64  -5684.189293  -9046.285383  75524.874378 999999.999999
*  2023  1  9  0 19 30.00000000
PL64  -1480.345505  -6673.959790   -679.613380  24866.043074
VL64  -5176.974621  -6572.545137  75818.616782 999999.999999
*  2023  1  9  0 20  0.00000000
PL64  -1495.094822  -6689.960079   -451.822153  24866.501992
VL64  -4653.188048  -4093.699742  76028.142062 999999.999999
*  2023  1  9  0 20 30.00000000
PL64  -1508.248628  -6698.519722   -223.528990  24866.960925
VL64  -4113.397765  -1612.587787  76153.208180 999999.999999
*  2023  1  9  0 21  0.00000000
PL64  -1519.759803  -6699.636179      5.012489  24867.419979
VL64  -3558.202589    867.951565  76193.670329 999999.999999
*  2023  1  9  0 21 30.00000000
PL64  -1529.583067  -6693.315422    233.548377  24867.879044
VL64  -2988.231133   3345.082267  76149.481055 999999.999999
*  2023  1  9  0 22  0.00000000
PL64  -1537.675070  -6679.571923    461.824771  24868.338073
VL64  -2404.140937   5815.974873  76020.690235 999999.999999
*  2023  1  9  0 22 30.00000000
PL64  -1543.994478  -6658.428630    689.588061  24868.797512
VL64  -1806.617711   8277.810000  75807.445037 999999.999999
*  2023  1  9  0 23  0.00000000
PL64  -1548.502055  -6629.916927    916.585228  24869.256968
VL64  -1196.374535  10727.781806  75509.989829 999999.999999
*  2023  1  9  0 23 30.00000000
PL64  -1551.160744  -6594.076592   1142.564128  24869.716296
VL64   -574.150834  13163.101590  75128.665994 999999.999999
*  2023  1  9  0 24  0.00000000
PL64  -1551.935744  -6550.955739   1367.273790  24870.175640
VL64     59.288787  15581.001402  74663.911438 999999.999999
*  2023  1  9  0 24 30.00000000
PL64  -1550.794584  -6500.610749   1590.464697  24870.634739
VL64    703.155508  17978.737461  74116.259985 999999.999999
*  2023  1  9  0 25  0.00000000
PL64  -1547.707195  -6443.106195   1811.889079  24871.093323
VL64   1356.637355  20353.593762  73486.340911 999999.999999
*  2023  1  9  0 25 30.00000000
PL64  -1542.645977  -6378.514751   2031.301195  24871.552380
VL64   2018.900699  22702.886256  72774.877909 999999.999999
*  2023  1  9  0 26  0.00000000
PL64  -1535.585863  -6306.917091   2248.457615  24872.011729
VL64   2689.091064  25023.966293  71982.686655 999999.999999
*  2023  1  9  0 26 30.00000000
PL64  -1526.504379  -6228.401779   2463.117491  24872.471053
VL64   3366.333057  27314.222058  71110.673823 999999.999999
*  2023  1  9  0 27  0.00000000
PL64  -1515.381707  -6143.065156   2675.042832  24872.930401
VL64   4049.732023  29571.081555  70159.837833 999999.999999
*  2023  1  9  0 27 30.00000000
PL64  -1502.200740  -6051.011215   2883.998780  24873.388268
VL64   4738.376806  31792.016982  69131.267283 999999.999999
*  2023  1  9  0 28  0.00000000
PL64  -1486.947126  -5952.351460   3089.753875  24873.844624
VL64   5431.341503  33974.547966  68026.138647 999999.999999
*  2023  1  9  0 28 30.00000000
PL64  -1469.609310  -5847.204763   3292.080313  24874.301399
VL64   6127.686619  36116.244924  66845.714210 999999.999999
*  2023  1  9  0 29  0.00000000
PL64  -1450.178578  -5735.697203   3490.754207  24874.759272
VL64   6826.459628  38214.731880  65591.339604 999999.999999
*  2023  1  9  0 29 30.00000000
PL64  -1428.649089  -5617.961904   3685.555825  24875.217830
VL64   7526.695655  40267.688969  64264.441829 999999.999999
*  2023  1  9  0 30  0.00000000
PL64  -1405.017916  -5494.138862   3876.269838  24875.676870
VL64   8227.418979  42272.854588  62866.527153 999999.999999
*  2023  1  9  0 30 30.00000000
PL64  -1379.285073  -5364.374771   4062.685552  24876.136294
VL64   8927.644716  44228.027036  61399.179173 999999.999999
*  2023  1  9  0 31  0.00000000
PL64  -1351.453538  -5228.822836   4244.597137  24876.595889
VL64   9626.380096  46131.066323  59864.057382 999999.999999
*  2023  1  9  0 31 30.00000000
PL64  -1321.529282  -5087.642585   4421.803854  24877.055573
VL64  10322.625717  47979.896647  58262.895694 999999.999999
*  2023  1  9  0 32  0.00000000
PL64  -1289.521278  -4940.999676   4594.110275  24877.515199
VL64  11015.376853  49772.509096  56597.500303 999999.999999
*  2023  1  9  0 32 30.00000000
PL64  -1255.441524  -4789.065690   4761.326496  24877.974825
VL64  11703.624707  51506.963876  54869.747481 999999.999999
EOF
